{
  "type": "FeatureCollection",
  "features": [
    {
      "type": "Feature",
      "properties": {
        "norad_id": 51444,
        "name": "CSG-2",
        "group": "resource",
        "lat": 62.227771461818,
        "lon": 1.021404187318637,
        "alt_km": 615.607868539807,
        "timestamp": "2025-12-10T09:57:44.362201+00:00",
        "meta_object_name": "CSG-2",
        "meta_object_id": "2022-008A",
        "meta_epoch": "2025-12-10T04:34:37.780320",
        "meta_mean_motion": 14.8215742,
        "meta_eccentricity": 0.0001487,
        "meta_inclination": 97.8804,
        "meta_ra_of_asc_node": 165.5518,
        "meta_arg_of_pericenter": 83.1503,
        "meta_mean_anomaly": 276.9879,
        "meta_ephemeris_type": 0,
        "meta_classification_type": "U",
        "meta_norad_cat_id": 51444,
        "meta_element_set_no": 999,
        "meta_rev_at_epoch": 20859,
        "meta_bstar": 4.9715e-05,
        "meta_mean_motion_dot": 3.44e-06,
        "meta_mean_motion_ddot": 0,
        "tle_line1": "1 51444U 22008A   25344.19071505  .00000344  00000+0  49715-4 0  9996",
        "tle_line2": "2 51444  97.8804 165.5518 0001487  83.1503 276.9879 14.82157420208593"
      },
      "geometry": {
        "type": "Point",
        "coordinates": [
          1.021404187318637,
          62.227771461818
        ]
      }
    },
    {
      "type": "Feature",
      "properties": {
        "norad_id": 52912,
        "name": "GAOFEN-12 03",
        "group": "resource",
        "lat": 53.76474089701129,
        "lon": -139.03102363442895,
        "alt_km": 623.9428570478885,
        "timestamp": "2025-12-10T09:57:44.362211+00:00",
        "meta_object_name": "GAOFEN-12 03",
        "meta_object_id": "2022-069A",
        "meta_epoch": "2025-12-10T04:50:51.931680",
        "meta_mean_motion": 14.79600817,
        "meta_eccentricity": 0.0002295,
        "meta_inclination": 97.848,
        "meta_ra_of_asc_node": 231.6094,
        "meta_arg_of_pericenter": 64.9188,
        "meta_mean_anomaly": 295.2262,
        "meta_ephemeris_type": 0,
        "meta_classification_type": "U",
        "meta_norad_cat_id": 52912,
        "meta_element_set_no": 999,
        "meta_rev_at_epoch": 18666,
        "meta_bstar": 0.00028209,
        "meta_mean_motion_dot": 2.063e-05,
        "meta_mean_motion_ddot": 0,
        "tle_line1": "1 52912U 22069A   25344.20198995  .00002063  00000+0  28209-3 0  9993",
        "tle_line2": "2 52912  97.8480 231.6094 0002295  64.9188 295.2262 14.79600817186664"
      },
      "geometry": {
        "type": "Point",
        "coordinates": [
          -139.03102363442895,
          53.76474089701129
        ]
      }
    },
    {
      "type": "Feature",
      "properties": {
        "norad_id": 54754,
        "name": "SWOT",
        "group": "resource",
        "lat": -26.435365458964625,
        "lon": -76.14619937208961,
        "alt_km": 898.873829829532,
        "timestamp": "2025-12-10T09:57:44.362221+00:00",
        "meta_object_name": "SWOT",
        "meta_object_id": "2022-173A",
        "meta_epoch": "2025-12-10T03:13:55.031808",
        "meta_mean_motion": 14.0017407,
        "meta_eccentricity": 3.32e-05,
        "meta_inclination": 77.6104,
        "meta_ra_of_asc_node": 290.5063,
        "meta_arg_of_pericenter": 120.6624,
        "meta_mean_anomaly": 239.456,
        "meta_ephemeris_type": 0,
        "meta_classification_type": "U",
        "meta_norad_cat_id": 54754,
        "meta_element_set_no": 999,
        "meta_rev_at_epoch": 15269,
        "meta_bstar": 4.9577e-05,
        "meta_mean_motion_dot": 7.1e-07,
        "meta_mean_motion_ddot": 0,
        "tle_line1": "1 54754U 22173A   25344.13466472  .00000071  00000+0  49577-4 0  9994",
        "tle_line2": "2 54754  77.6104 290.5063 0000332 120.6624 239.4560 14.00174070152692"
      },
      "geometry": {
        "type": "Point",
        "coordinates": [
          -76.14619937208961,
          -26.435365458964625
        ]
      }
    },
    {
      "type": "Feature",
      "properties": {
        "norad_id": 57654,
        "name": "GAOFEN-12 04",
        "group": "resource",
        "lat": -42.99085237522942,
        "lon": 72.75891725756838,
        "alt_km": 637.8074775184768,
        "timestamp": "2025-12-10T09:57:44.362232+00:00",
        "meta_object_name": "GAOFEN-12 04",
        "meta_object_id": "2023-123A",
        "meta_epoch": "2025-12-10T04:05:12.954912",
        "meta_mean_motion": 14.79688062,
        "meta_eccentricity": 0.0001374,
        "meta_inclination": 97.9117,
        "meta_ra_of_asc_node": 259.9665,
        "meta_arg_of_pericenter": 73.9143,
        "meta_mean_anomaly": 286.222,
        "meta_ephemeris_type": 0,
        "meta_classification_type": "U",
        "meta_norad_cat_id": 57654,
        "meta_element_set_no": 999,
        "meta_rev_at_epoch": 12467,
        "meta_bstar": 0.00029199,
        "meta_mean_motion_dot": 2.141e-05,
        "meta_mean_motion_ddot": 0,
        "tle_line1": "1 57654U 23123A   25344.17028883  .00002141  00000+0  29199-3 0  9993",
        "tle_line2": "2 57654  97.9117 259.9665 0001374  73.9143 286.2220 14.79688062124670"
      },
      "geometry": {
        "type": "Point",
        "coordinates": [
          72.75891725756838,
          -42.99085237522942
        ]
      }
    },
    {
      "type": "Feature",
      "properties": {
        "norad_id": 59065,
        "name": "PARS 1",
        "group": "resource",
        "lat": 70.10826438935435,
        "lon": 156.54228495845973,
        "alt_km": 429.1841591851926,
        "timestamp": "2025-12-10T09:57:44.362242+00:00",
        "meta_object_name": "PARS 1",
        "meta_object_id": "2024-039Q",
        "meta_epoch": "2025-12-10T04:49:06.891744",
        "meta_mean_motion": 15.40882325,
        "meta_eccentricity": 0.0012658,
        "meta_inclination": 97.4638,
        "meta_ra_of_asc_node": 315.08,
        "meta_arg_of_pericenter": 79.8954,
        "meta_mean_anomaly": 280.3719,
        "meta_ephemeris_type": 0,
        "meta_classification_type": "U",
        "meta_norad_cat_id": 59065,
        "meta_element_set_no": 999,
        "meta_rev_at_epoch": 9949,
        "meta_bstar": 0.00038742,
        "meta_mean_motion_dot": 0.00015883,
        "meta_mean_motion_ddot": 0,
        "tle_line1": "1 59065U 24039Q   25344.20077421  .00015883  00000+0  38742-3 0  9995",
        "tle_line2": "2 59065  97.4638 315.0800 0012658  79.8954 280.3719 15.40882325 99494"
      },
      "geometry": {
        "type": "Point",
        "coordinates": [
          156.54228495845973,
          70.10826438935435
        ]
      }
    },
    {
      "type": "Feature",
      "properties": {
        "norad_id": 59371,
        "name": "RESURS-P 4",
        "group": "resource",
        "lat": -35.243541507819586,
        "lon": -64.04353662592993,
        "alt_km": 475.9965589753965,
        "timestamp": "2025-12-10T09:57:44.362252+00:00",
        "meta_object_name": "RESURS-P 4",
        "meta_object_id": "2024-061A",
        "meta_epoch": "2025-12-10T03:50:49.578720",
        "meta_mean_motion": 15.32052402,
        "meta_eccentricity": 0.0001711,
        "meta_inclination": 97.2543,
        "meta_ra_of_asc_node": 290.5431,
        "meta_arg_of_pericenter": 53.2675,
        "meta_mean_anomaly": 306.8724,
        "meta_ephemeris_type": 0,
        "meta_classification_type": "U",
        "meta_norad_cat_id": 59371,
        "meta_element_set_no": 999,
        "meta_rev_at_epoch": 9481,
        "meta_bstar": 0.00018229,
        "meta_mean_motion_dot": 5.565e-05,
        "meta_mean_motion_ddot": 0,
        "tle_line1": "1 59371U 24061A   25344.16029605  .00005565  00000+0  18229-3 0  9990",
        "tle_line2": "2 59371  97.2543 290.5431 0001711  53.2675 306.8724 15.32052402 94815"
      },
      "geometry": {
        "type": "Point",
        "coordinates": [
          -64.04353662592993,
          -35.243541507819586
        ]
      }
    },
    {
      "type": "Feature",
      "properties": {
        "norad_id": 59625,
        "name": "LEGION 1",
        "group": "resource",
        "lat": -39.73821415254242,
        "lon": 65.37885064649379,
        "alt_km": 520.3137471940836,
        "timestamp": "2025-12-10T09:57:44.362262+00:00",
        "meta_object_name": "LEGION 1",
        "meta_object_id": "2024-081A",
        "meta_epoch": "2025-12-10T03:48:15.412608",
        "meta_mean_motion": 15.1643818,
        "meta_eccentricity": 0.0004177,
        "meta_inclination": 97.521,
        "meta_ra_of_asc_node": 58.8187,
        "meta_arg_of_pericenter": 328.7582,
        "meta_mean_anomaly": 31.3402,
        "meta_ephemeris_type": 0,
        "meta_classification_type": "U",
        "meta_norad_cat_id": 59625,
        "meta_element_set_no": 999,
        "meta_rev_at_epoch": 8888,
        "meta_bstar": 0.00038882,
        "meta_mean_motion_dot": 7.497e-05,
        "meta_mean_motion_ddot": 0,
        "tle_line1": "1 59625U 24081A   25344.15851172  .00007497  00000+0  38882-3 0  9998",
        "tle_line2": "2 59625  97.5210  58.8187 0004177 328.7582  31.3402 15.16438180 88886"
      },
      "geometry": {
        "type": "Point",
        "coordinates": [
          65.37885064649379,
          -39.73821415254242
        ]
      }
    }
  ]
}